OBJECT_NAME,OBJECT_ID,EPOCH,MEAN_MOTION,ECCENTRICITY,INCLINATION,RA_OF_ASC_NODE,ARG_OF_PERICENTER,MEAN_ANOMALY,EPHEMERIS_TYPE,CLASSIFICATION_TYPE,NORAD_CAT_ID,ELEMENT_SET_NO,REV_AT_EPOCH,BSTAR,MEAN_MOTION_DOT,MEAN_MOTION_DDOT
STARLINK-11142 [DTC],2024-107N,2026-03-14T16:16:04.734912,15.69711844,.0000686,53.1598,226.3596,80.2805,279.8290,0,U,59957,999,10294,.11779015E-4,.839E-5,0
STARLINK-31995,2024-107P,2026-03-14T21:24:04.505184,15.30195835,.00012144,53.1614,41.3145,109.9266,250.1865,0,U,59958,999,9939,.62385931E-4,.1489E-4,0
STARLINK-31989,2024-107Q,2026-03-14T21:14:57.762528,15.30193959,.00012322,53.1613,41.2777,93.0576,267.0566,0,U,59959,999,10059,.30129835E-4,.533E-5,0
STARLINK-31856,2024-107R,2026-03-14T21:19:31.489824,15.30182617,.00010243,53.1615,41.2968,94.0588,266.0530,0,U,59960,999,10059,-.19757046E-4,-.944E-5,0
STARLINK-31993,2024-107S,2026-03-14T16:51:02.544192,15.30195503,.00012333,53.1611,42.2617,130.7275,229.3833,0,U,59961,999,10050,.39575924E-4,.813E-5,0
STARLINK-31980,2024-107T,2026-03-14T21:43:49.546848,15.30198219,.00013316,53.1619,41.3980,93.7577,266.3577,0,U,59962,999,10059,.74556621E-4,.1849E-4,0
STARLINK-31991,2024-107U,2026-03-14T16:46:28.556832,15.30196476,.0001115,53.1607,42.2436,100.5692,259.5434,0,U,59963,999,10056,.4264021E-4,.904E-5,0
STARLINK-31979,2024-107V,2026-03-14T04:24:41.382720,15.30193349,.00012127,53.1612,44.7165,92.9156,267.1983,0,U,59964,999,10043,.43140557E-4,.918E-5,0
STARLINK-31978,2024-111A,2026-03-14T22:41:26.079072,15.30194942,.00012972,53.1611,51.5369,91.4978,268.6171,0,U,60016,999,9973,.29037749E-4,.501E-5,0
STARLINK-31987,2024-111B,2026-03-14T22:32:18.941568,15.30197399,.000135,53.1611,51.4963,79.8399,280.2754,0,U,60017,999,9979,.65717653E-4,.1587E-4,0
STARLINK-31984,2024-111C,2026-03-14T22:21:41.103072,15.30203822,.00008706,53.1616,51.4471,105.1717,254.9381,0,U,60018,999,9968,-.6533833E-4,-.2294E-4,0
STARLINK-31986,2024-111D,2026-03-14T22:08:00.318624,15.30190442,.00012567,53.1613,51.3861,88.7278,271.3867,0,U,60019,999,9984,.43133376E-4,.918E-5,0
STARLINK-31883,2024-111E,2026-03-14T22:36:52.439040,15.30194793,.00013448,53.1609,51.5165,74.9328,285.1822,0,U,60020,999,9978,.49909645E-4,.1119E-4,0
STARLINK-31967,2024-111F,2026-03-14T05:40:21.839232,15.30198100,.00011903,53.1610,54.2160,80.6190,279.4946,0,U,60021,999,9974,.28227437E-4,.477E-5,0
STARLINK-31982,2024-111G,2026-03-14T22:45:49.467744,15.30200569,.00011152,53.1614,50.8471,82.9371,277.1756,0,U,60022,999,9985,.4799627E-4,.1063E-4,0
STARLINK-31992,2024-111H,2026-03-14T22:00:24.424704,15.30198822,.00014222,53.1613,51.3599,81.6498,278.4664,0,U,60023,999,9984,.74994962E-4,.1862E-4,0
STARLINK-31990,2024-111J,2026-03-14T21:54:19.695744,15.30194538,.00013778,53.1618,51.3315,87.5319,272.5840,0,U,60024,999,9983,.12670047E-4,.16E-6,0
STARLINK-31939,2024-111L,2026-03-14T09:02:06.984672,15.30217165,.00011185,53.1607,53.6692,97.9672,262.1456,0,U,60026,999,9975,.11073902E-3,.2924E-4,0
STARLINK-32012,2024-111M,2026-03-14T21:39:07.730784,15.30195687,.00011505,53.1611,51.2585,98.5567,261.5565,0,U,60027,999,9983,.32218394E-4,.595E-5,0
STARLINK-32008,2024-111N,2026-03-14T06:04:41.037600,15.30189309,.00011783,53.1611,54.3171,102.1940,257.9193,0,U,60028,999,9973,-.5442079E-5,-.52E-5,0
STARLINK-32006,2024-111P,2026-03-14T21:58:53.322816,15.30194269,.00011874,53.1615,51.3494,98.3038,261.8098,0,U,60029,999,9983,.4041399E-5,-.239E-5,0
STARLINK-32011,2024-111Q,2026-03-14T05:34:17.448960,15.30193920,.00013379,53.1607,54.1965,82.7515,277.3638,0,U,60030,999,9973,.2775944E-4,.463E-5,0
STARLINK-31878,2024-111R,2026-03-14T22:22:50.968704,15.30203489,.00009764,53.1622,359.5030,79.7885,280.3226,0,U,60031,999,10031,.53144221E-4,.1215E-4,0
STARLINK-32017,2024-111S,2026-03-14T06:24:26.481888,15.30189960,.00009857,53.1614,54.4280,83.1899,276.9214,0,U,60032,999,9973,.4295754E-5,-.232E-5,0
STARLINK-32005,2024-111U,2026-03-14T06:09:14.582592,15.30191852,.0001193,53.1615,54.3419,89.8804,270.2334,0,U,60034,999,9963,-.2800504E-5,-.442E-5,0
STARLINK-31981,2024-111V,2026-03-14T22:17:07.139904,15.30193318,.00012565,53.1614,51.4258,95.3079,264.8065,0,U,60035,999,9976,.35288616E-4,.686E-5,0
