STARLINK-11142 [DTC]    
1 59957U 24107N   26073.67783258  .00000839  00000+0  11779-4 0  9991
2 59957  53.1598 226.3596 0000686  80.2805 279.8290 15.69711844102943
STARLINK-31995          
1 59958U 24107P   26073.89171881  .00001489  00000+0  62386-4 0  9991
2 59958  53.1614  41.3145 0001214 109.9266 250.1865 15.30195835 99394
STARLINK-31989          
1 59959U 24107Q   26073.88539077  .00000533  00000+0  30130-4 0  9997
2 59959  53.1613  41.2777 0001232  93.0576 267.0566 15.30193959100596
STARLINK-31856          
1 59960U 24107R   26073.88855891 -.00000944  00000+0 -19757-4 0  9994
2 59960  53.1615  41.2968 0001024  94.0588 266.0530 15.30182617100594
STARLINK-31993          
1 59961U 24107S   26073.70211278  .00000813  00000+0  39576-4 0  9995
2 59961  53.1611  42.2617 0001233 130.7275 229.3833 15.30195503100503
STARLINK-31980          
1 59962U 24107T   26073.90543457  .00001849  00000+0  74557-4 0  9993
2 59962  53.1619  41.3980 0001331  93.7577 266.3577 15.30198219100599
STARLINK-31991          
1 59963U 24107U   26073.69894163  .00000904  00000+0  42640-4 0  9992
2 59963  53.1607  42.2436 0001115 100.5692 259.5434 15.30196476100564
STARLINK-31979          
1 59964U 24107V   26073.18381230  .00000918  00000+0  43141-4 0  9995
2 59964  53.1612  44.7165 0001212  92.9156 267.1983 15.30193349100430
STARLINK-31978          
1 60016U 24111A   26073.94544073  .00000501  00000+0  29038-4 0  9997
2 60016  53.1611  51.5369 0001297  91.4978 268.6171 15.30194942 99735
STARLINK-31987          
1 60017U 24111B   26073.93910812  .00001587  00000+0  65718-4 0  9995
2 60017  53.1611  51.4963 0001350  79.8399 280.2754 15.30197399 99794
STARLINK-31984          
1 60018U 24111C   26073.93172573 -.00002294  00000+0 -65338-4 0  9996
2 60018  53.1616  51.4471 0000870 105.1717 254.9381 15.30203822 99688
STARLINK-31986          
1 60019U 24111D   26073.92222591  .00000918  00000+0  43133-4 0  9990
2 60019  53.1613  51.3861 0001256  88.7278 271.3867 15.30190442 99848
STARLINK-31883          
1 60020U 24111E   26073.94227360  .00001119  00000+0  49910-4 0  9996
2 60020  53.1609  51.5165 0001344  74.9328 285.1822 15.30194793 99785
STARLINK-31967          
1 60021U 24111F   26073.23636388  .00000477  00000+0  28227-4 0  9997
2 60021  53.1610  54.2160 0001190  80.6190 279.4946 15.30198100 99748
STARLINK-31982          
1 60022U 24111G   26073.94848921  .00001063  00000+0  47996-4 0  9990
2 60022  53.1614  50.8471 0001115  82.9371 277.1756 15.30200569 99852
STARLINK-31992          
1 60023U 24111H   26073.91694936  .00001862  00000+0  74995-4 0  9999
2 60023  53.1613  51.3599 0001422  81.6498 278.4664 15.30198822 99845
STARLINK-31990          
1 60024U 24111J   26073.91272796  .00000016  00000+0  12670-4 0  9998
2 60024  53.1618  51.3315 0001377  87.5319 272.5840 15.30194538 99833
STARLINK-31939          
1 60026U 24111L   26073.37646973  .00002924  00000+0  11074-3 0  9998
2 60026  53.1607  53.6692 0001118  97.9672 262.1456 15.30217165 99757
STARLINK-32012          
1 60027U 24111M   26073.90217281  .00000595  00000+0  32218-4 0  9990
2 60027  53.1611  51.2585 0001150  98.5567 261.5565 15.30195687 99831
STARLINK-32008          
1 60028U 24111N   26073.25325275 -.00000520  00000+0 -54421-5 0  9993
2 60028  53.1611  54.3171 0001178 102.1940 257.9193 15.30189309 99733
STARLINK-32006          
1 60029U 24111P   26073.91589494 -.00000239  00000+0  40414-5 0  9995
2 60029  53.1615  51.3494 0001187  98.3038 261.8098 15.30194269 99837
STARLINK-32011          
1 60030U 24111Q   26073.23214640  .00000463  00000+0  27759-4 0  9994
2 60030  53.1607  54.1965 0001337  82.7515 277.3638 15.30193920 99732
STARLINK-31878          
1 60031U 24111R   26073.93253436  .00001215  00000+0  53144-4 0  9991
2 60031  53.1622 359.5030 0000976  79.7885 280.3226 15.30203489100315
STARLINK-32017          
1 60032U 24111S   26073.26697317 -.00000232  00000+0  42958-5 0  9999
2 60032  53.1614  54.4280 0000985  83.1899 276.9214 15.30189960 99737
STARLINK-32005          
1 60034U 24111U   26073.25641878 -.00000442  00000+0 -28005-5 0  9992
2 60034  53.1615  54.3419 0001193  89.8804 270.2334 15.30191852 99636
STARLINK-31981          
1 60035U 24111V   26073.92855486  .00000686  00000+0  35289-4 0  9998
2 60035  53.1614  51.4258 0001256  95.3079 264.8065 15.30193318 99764
